{"type": "FeatureCollection", "features": [ {"type": "Feature", "properties": {"norad_id": 33492, "name": "GOSAT (IBUKI)", "group": "resource", "lat": 63.41213020531157, "lon": 87.93762991453681, "alt_km": 662.1741878191297, "timestamp": "2025-12-21T22:41:41.104270+00:00", "meta": {"OBJECT_NAME": "GOSAT (IBUKI)", "OBJECT_ID": "2009-002A", "EPOCH": "2025-12-21T12:34:59.966688", "MEAN_MOTION": 14.67541076, "ECCENTRICITY": 9.931e-05, "INCLINATION": 98.0772, "RA_OF_ASC_NODE": 104.0056, "ARG_OF_PERICENTER": 101.8988, "MEAN_ANOMALY": 258.2328, "EPHEMERIS_TYPE": 0, "CLASSIFICATION_TYPE": "U", "NORAD_CAT_ID": 33492, "ELEMENT_SET_NO": 999, "REV_AT_EPOCH": 90540, "BSTAR": 0.00012639174, "MEAN_MOTION_DOT": 6.69e-06, "MEAN_MOTION_DDOT": 0}, "tle": {"line1": "1 33492U 09002A   25355.52430517  .00000669  00000+0  12639-3 0  9993", "line2": "2 33492  98.0772 104.0056 0000993 101.8988 258.2328 14.67541076905407"}}, "geometry": {"type": "Point", "coordinates": [87.93762991453681, 63.41213020531157]}}, {"type": "Feature", "properties": {"norad_id": 35681, "name": "DEIMOS-1", "group": "resource", "lat": 27.225431251070418, "lon": 152.12087855682879, "alt_km": 642.7625157497705, "timestamp": "2025-12-21T22:41:41.104281+00:00", "meta": {"OBJECT_NAME": "DEIMOS-1", "OBJECT_ID": "2009-041A", "EPOCH": "2025-12-21T14:25:47.187840", "MEAN_MOTION": 14.74963646, "ECCENTRICITY": 0.00025714, "INCLINATION": 97.7145, "RA_OF_ASC_NODE": 155.7918, "ARG_OF_PERICENTER": 65.5267, "MEAN_ANOMALY": 294.6211, "EPHEMERIS_TYPE": 0, "CLASSIFICATION_TYPE": "U", "NORAD_CAT_ID": 35681, "ELEMENT_SET_NO": 999, "REV_AT_EPOCH": 88070, "BSTAR": 3.7212553e-05, "MEAN_MOTION_DOT": 2.03e-06, "MEAN_MOTION_DDOT": 0}, "tle": {"line1": "1 35681U 09041A   25355.60124060  .00000203  00000+0  37213-4 0  9990", "line2": "2 35681  97.7145 155.7918 0002571  65.5267 294.6211 14.74963646880708"}}, "geometry": {"type": "Point", "coordinates": [152.12087855682879, 27.225431251070418]}}, {"type": "Feature", "properties": {"norad_id": 35682, "name": "DUBAISAT-1", "group": "resource", "lat": -48.06289673213527, "lon": 135.47275290145683, "alt_km": 647.5524871811804, "timestamp": "2025-12-21T22:41:41.104306+00:00", "meta": {"OBJECT_NAME": "DUBAISAT-1", "OBJECT_ID": "2009-041B", "EPOCH": "2025-12-21T14:46:20.515008", "MEAN_MOTION": 14.74626553, "ECCENTRICITY": 0.00092341, "INCLINATION": 97.9798, "RA_OF_ASC_NODE": 126.1649, "ARG_OF_PERICENTER": 282.6201, "MEAN_ANOMALY": 77.3975, "EPHEMERIS_TYPE": 0, "CLASSIFICATION_TYPE": "U", "NORAD_CAT_ID": 35682, "ELEMENT_SET_NO": 999, "REV_AT_EPOCH": 87892, "BSTAR": 0.0001606321, "MEAN_MOTION_DOT": 1.021e-05, "MEAN_MOTION_DDOT": 0}, "tle": {"line1": "1 35682U 09041B   25355.61551522  .00001021  00000+0  16063-3 0  9997", "line2": "2 35682  97.9798 126.1649 0009234 282.6201  77.3975 14.74626553878928"}}, "geometry": {"type": "Point", "coordinates": [135.47275290145683, -48.06289673213527]}}, {"type": "Feature", "properties": {"norad_id": 35931, "name": "OCEANSAT-2", "group": "resource", "lat": 12.574194226186124, "lon": 177.46014766633118, "alt_km": 905.9058719025816, "timestamp": "2025-12-21T22:41:41.104319+00:00", "meta": {"OBJECT_NAME": "OCEANSAT-2", "OBJECT_ID": "2009-051A", "EPOCH": "2025-12-21T15:02:11.448960", "MEAN_MOTION": 13.99622987, "ECCENTRICITY": 0.001599, "INCLINATION": 98.2217, "RA_OF_ASC_NODE": 355.3254, "ARG_OF_PERICENTER": 21.7522, "MEAN_ANOMALY": 338.4321, "EPHEMERIS_TYPE": 0, "CLASSIFICATION_TYPE": "U", "NORAD_CAT_ID": 35931, "ELEMENT_SET_NO": 999, "REV_AT_EPOCH": 85449, "BSTAR": -4.5689332e-05, "MEAN_MOTION_DOT": -1.04e-06, "MEAN_MOTION_DDOT": 0}, "tle": {"line1": "1 35931U 09051A   25355.62652140 -.00000104  00000+0 -45689-4 0  9994", "line2": "2 35931  98.2217 355.3254 0015990  21.7522 338.4321 13.99622987854492"}}, "geometry": {"type": "Point", "coordinates": [177.46014766633118, 12.574194226186124]}}, {"type": "Feature", "properties": {"norad_id": 35946, "name": "WORLDVIEW-2 (WV-2)", "group": "resource", "lat": 68.62069546731703, "lon": -90.70094952546742, "alt_km": 757.6785714789949, "timestamp": "2025-12-21T22:41:41.104340+00:00", "meta": {"OBJECT_NAME": "WORLDVIEW-2 (WV-2)", "OBJECT_ID": "2009-055A", "EPOCH": "2025-12-21T12:09:55.283040", "MEAN_MOTION": 14.37727569, "ECCENTRICITY": 0.00048774, "INCLINATION": 98.4778, "RA_OF_ASC_NODE": 66.4711, "ARG_OF_PERICENTER": 49.1744, "MEAN_ANOMALY": 310.9865, "EPHEMERIS_TYPE": 0, "CLASSIFICATION_TYPE": "U", "NORAD_CAT_ID": 35946, "ELEMENT_SET_NO": 999, "REV_AT_EPOCH": 85011, "BSTAR": 5.867145e-05, "MEAN_MOTION_DOT": 1.33e-06, "MEAN_MOTION_DDOT": 0}, "tle": {"line1": "1 35946U 09055A   25355.50688985  .00000133  00000+0  58671-4 0  9992", "line2": "2 35946  98.4778  66.4711 0004877  49.1744 310.9865 14.37727569850110"}}, "geometry": {"type": "Point", "coordinates": [-90.70094952546742, 68.62069546731703]}}, {"type": "Feature", "properties": {"norad_id": 36036, "name": "SMOS", "group": "resource", "lat": -31.613153966349994, "lon": -4.3847651563016425, "alt_km": 765.8369808732223, "timestamp": "2025-12-21T22:41:41.104351+00:00", "meta": {"OBJECT_NAME": "SMOS", "OBJECT_ID": "2009-059A", "EPOCH": "2025-12-21T11:42:22.095072", "MEAN_MOTION": 14.39748569, "ECCENTRICITY": 0.00010692, "INCLINATION": 98.438, "RA_OF_ASC_NODE": 180.4067, "ARG_OF_PERICENTER": 84.057, "MEAN_ANOMALY": 276.074, "EPHEMERIS_TYPE": 0, "CLASSIFICATION_TYPE": "U", "NORAD_CAT_ID": 36036, "ELEMENT_SET_NO": 999, "REV_AT_EPOCH": 84788, "BSTAR": 0.00011357445, "MEAN_MOTION_DOT": 3.12e-06, "MEAN_MOTION_DDOT": 0}, "tle": {"line1": "1 36036U 09059A   25355.48775573  .00000312  00000+0  11357-3 0  9992", "line2": "2 36036  98.4380 180.4067 0001069  84.0570 276.0740 14.39748569847885"}}, "geometry": {"type": "Point", "coordinates": [-4.3847651563016425, -31.613153966349994]}}, {"type": "Feature", "properties": {"norad_id": 36110, "name": "YAOGAN-7", "group": "resource", "lat": -33.50993951829571, "lon": 52.3061581239392, "alt_km": 629.3942647894555, "timestamp": "2025-12-21T22:41:41.104361+00:00", "meta": {"OBJECT_NAME": "YAOGAN-7", "OBJECT_ID": "2009-069A", "EPOCH": "2025-12-21T10:21:10.226304", "MEAN_MOTION": 14.77744116, "ECCENTRICITY": 0.00233741, "INCLINATION": 98.0296, "RA_OF_ASC_NODE": 237.1571, "ARG_OF_PERICENTER": 251.6264, "MEAN_ANOMALY": 108.2405, "EPHEMERIS_TYPE": 0, "CLASSIFICATION_TYPE": "U", "NORAD_CAT_ID": 36110, "ELEMENT_SET_NO": 999, "REV_AT_EPOCH": 86337, "BSTAR": 7.7562861e-05, "MEAN_MOTION_DOT": 5.05e-06, "MEAN_MOTION_DDOT": 0}, "tle": {"line1": "1 36110U 09069A   25355.43136836  .00000505  00000+0  77563-4 0  9990", "line2": "2 36110  98.0296 237.1571 0023374 251.6264 108.2405 14.77744116863377"}}, "geometry": {"type": "Point", "coordinates": [52.3061581239392, -33.50993951829571]}}, {"type": "Feature", "properties": {"norad_id": 36605, "name": "TANDEM-X", "group": "resource", "lat": 29.243206400118805, "lon": -3.0067350288373227, "alt_km": 506.2087431322261, "timestamp": "2025-12-21T22:41:41.104372+00:00", "meta": {"OBJECT_NAME": "TANDEM-X", "OBJECT_ID": "2010-030A", "EPOCH": "2025-12-21T11:29:57.943104", "MEAN_MOTION": 15.19156092, "ECCENTRICITY": 0.00017986, "INCLINATION": 97.4444, "RA_OF_ASC_NODE": 0.7318, "ARG_OF_PERICENTER": 77.8908, "MEAN_ANOMALY": 282.2528, "EPHEMERIS_TYPE": 0, "CLASSIFICATION_TYPE": "U", "NORAD_CAT_ID": 36605, "ELEMENT_SET_NO": 999, "REV_AT_EPOCH": 85966, "BSTAR": 3.7921261e-05, "MEAN_MOTION_DOT": 7.29e-06, "MEAN_MOTION_DDOT": 0}, "tle": {"line1": "1 36605U 10030A   25355.47914286  .00000729  00000+0  37921-4 0  9998", "line2": "2 36605  97.4444   0.7318 0001798  77.8908 282.2528 15.19156092859669"}}, "geometry": {"type": "Point", "coordinates": [-3.0067350288373227, 29.243206400118805]}}, {"type": "Feature", "properties": {"norad_id": 36795, "name": "CARTOSAT-2B", "group": "resource", "lat": 5.708430988594165, "lon": -134.53966387396912, "alt_km": 640.6643662185661, "timestamp": "2025-12-21T22:41:41.104382+00:00", "meta": {"OBJECT_NAME": "CARTOSAT-2B", "OBJECT_ID": "2010-035A", "EPOCH": "2025-12-21T15:24:53.629632", "MEAN_MOTION": 14.7873799, "ECCENTRICITY": 0.00127934, "INCLINATION": 97.7843, "RA_OF_ASC_NODE": 44.3834, "ARG_OF_PERICENTER": 50.3399, "MEAN_ANOMALY": 309.8939, "EPHEMERIS_TYPE": 0, "CLASSIFICATION_TYPE": "U", "NORAD_CAT_ID": 36795, "ELEMENT_SET_NO": 999, "REV_AT_EPOCH": 83361, "BSTAR": 0.0001457534, "MEAN_MOTION_DOT": 1.021e-05, "MEAN_MOTION_DDOT": 0}, "tle": {"line1": "1 36795U 10035A   25355.64228738  .00001021  00000+0  14575-3 0  9997", "line2": "2 36795  97.7843  44.3834 0012793  50.3399 309.8939 14.78737990833614"}}, "geometry": {"type": "Point", "coordinates": [-134.53966387396912, 5.708430988594165]}}, {"type": "Feature", "properties": {"norad_id": 36834, "name": "YAOGAN-10", "group": "resource", "lat": 82.05173806652422, "lon": -69.29291298695908, "alt_km": 606.3261227370313, "timestamp": "2025-12-21T22:41:41.104392+00:00", "meta": {"OBJECT_NAME": "YAOGAN-10", "OBJECT_ID": "2010-038A", "EPOCH": "2025-12-21T14:52:57.741600", "MEAN_MOTION": 14.84636184, "ECCENTRICITY": 0.00013717, "INCLINATION": 97.913, "RA_OF_ASC_NODE": 15.3741, "ARG_OF_PERICENTER": 77.135, "MEAN_ANOMALY": 73.5272, "EPHEMERIS_TYPE": 0, "CLASSIFICATION_TYPE": "U", "NORAD_CAT_ID": 36834, "ELEMENT_SET_NO": 999, "REV_AT_EPOCH": 83085, "BSTAR": 0.00010764342, "MEAN_MOTION_DOT": 8.56e-06, "MEAN_MOTION_DDOT": 0}, "tle": {"line1": "1 36834U 10038A   25355.62011275  .00000856  00000+0  10764-3 0  9999", "line2": "2 36834  97.9130  15.3741 0001371  77.1350  73.5272 14.84636184830856"}}, "geometry": {"type": "Point", "coordinates": [-69.29291298695908, 82.05173806652422]}}]}